{
  "type": "FeatureCollection",
  "features": [
    {
      "type": "Feature",
      "properties": {
        "norad_id": 66471,
        "name": "STARLINK-35569",
        "group": "last-30-days",
        "lat": 32.61605061890339,
        "lon": 126.82565703534904,
        "alt_km": 410.5653680949126,
        "timestamp": "2025-12-10T14:53:35.945864+00:00",
        "meta_object_name": "STARLINK-35569",
        "meta_object_id": "2025-262R",
        "meta_epoch": "2025-12-10T05:23:39.050592",
        "meta_mean_motion": 15.50640903,
        "meta_eccentricity": 0.00025403,
        "meta_inclination": 43.0003,
        "meta_ra_of_asc_node": 85.7711,
        "meta_arg_of_pericenter": 267.4022,
        "meta_mean_anomaly": 92.6547,
        "meta_ephemeris_type": 0,
        "meta_classification_type": "U",
        "meta_norad_cat_id": 66471,
        "meta_element_set_no": 999,
        "meta_rev_at_epoch": 517,
        "meta_bstar": 0.0032695678,
        "meta_mean_motion_dot": 0.00196807,
        "meta_mean_motion_ddot": 0,
        "tle_line1": "1 66471U 25262R   25344.22475753  .00196807  00000+0  32696-2 0  9992",
        "tle_line2": "2 66471  43.0003  85.7711 0002540 267.4022  92.6547 15.50640903  5178"
      },
      "geometry": {
        "type": "Point",
        "coordinates": [
          126.82565703534904,
          32.61605061890339
        ]
      }
    },
    {
      "type": "Feature",
      "properties": {
        "norad_id": 66472,
        "name": "STARLINK-35567",
        "group": "last-30-days",
        "lat": 34.43762589079803,
        "lon": 130.82188415196453,
        "alt_km": 410.2347761148394,
        "timestamp": "2025-12-10T14:53:35.945873+00:00",
        "meta_object_name": "STARLINK-35567",
        "meta_object_id": "2025-262S",
        "meta_epoch": "2025-12-10T06:55:24.966624",
        "meta_mean_motion": 15.50651919,
        "meta_eccentricity": 0.00019795,
        "meta_inclination": 43,
        "meta_ra_of_asc_node": 85.3879,
        "meta_arg_of_pericenter": 260.6566,
        "meta_mean_anomaly": 99.407,
        "meta_ephemeris_type": 0,
        "meta_classification_type": "U",
        "meta_norad_cat_id": 66472,
        "meta_element_set_no": 999,
        "meta_rev_at_epoch": 518,
        "meta_bstar": 0.0025444524,
        "meta_mean_motion_dot": 0.00152265,
        "meta_mean_motion_ddot": 0,
        "tle_line1": "1 66472U 25262S   25344.28848341  .00152265  00000+0  25445-2 0  9990",
        "tle_line2": "2 66472  43.0000  85.3879 0001979 260.6566  99.4070 15.50651919  5186"
      },
      "geometry": {
        "type": "Point",
        "coordinates": [
          130.82188415196453,
          34.43762589079803
        ]
      }
    },
    {
      "type": "Feature",
      "properties": {
        "norad_id": 66473,
        "name": "STARLINK-35568",
        "group": "last-30-days",
        "lat": 35.316007777415614,
        "lon": 132.92759819641518,
        "alt_km": 410.1609901342208,
        "timestamp": "2025-12-10T14:53:35.945882+00:00",
        "meta_object_name": "STARLINK-35568",
        "meta_object_id": "2025-262T",
        "meta_epoch": "2025-12-10T06:54:55.222560",
        "meta_mean_motion": 15.50661869,
        "meta_eccentricity": 0.00020412,
        "meta_inclination": 43.0001,
        "meta_ra_of_asc_node": 85.3848,
        "meta_arg_of_pericenter": 252.271,
        "meta_mean_anomaly": 107.7928,
        "meta_ephemeris_type": 0,
        "meta_classification_type": "U",
        "meta_norad_cat_id": 66473,
        "meta_element_set_no": 999,
        "meta_rev_at_epoch": 518,
        "meta_bstar": 0.002822102,
        "meta_mean_motion_dot": 0.00169349,
        "meta_mean_motion_ddot": 0,
        "tle_line1": "1 66473U 25262T   25344.28813915  .00169349  00000+0  28221-2 0  9996",
        "tle_line2": "2 66473  43.0001  85.3848 0002041 252.2710 107.7928 15.50661869  5183"
      },
      "geometry": {
        "type": "Point",
        "coordinates": [
          132.92759819641518,
          35.316007777415614
        ]
      }
    },
    {
      "type": "Feature",
      "properties": {
        "norad_id": 66474,
        "name": "STARLINK-35620",
        "group": "last-30-days",
        "lat": 36.12421019677773,
        "lon": 134.99244048227908,
        "alt_km": 409.3672747102264,
        "timestamp": "2025-12-10T14:53:35.945891+00:00",
        "meta_object_name": "STARLINK-35620",
        "meta_object_id": "2025-262U",
        "meta_epoch": "2025-12-10T06:54:26.519616",
        "meta_mean_motion": 15.50650843,
        "meta_eccentricity": 0.00011172,
        "meta_inclination": 43.0004,
        "meta_ra_of_asc_node": 85.3825,
        "meta_arg_of_pericenter": 264.2288,
        "meta_mean_anomaly": 95.8444,
        "meta_ephemeris_type": 0,
        "meta_classification_type": "U",
        "meta_norad_cat_id": 66474,
        "meta_element_set_no": 999,
        "meta_rev_at_epoch": 518,
        "meta_bstar": 0.0032381356,
        "meta_mean_motion_dot": 0.00194929,
        "meta_mean_motion_ddot": 0,
        "tle_line1": "1 66474U 25262U   25344.28780694  .00194929  00000+0  32381-2 0  9998",
        "tle_line2": "2 66474  43.0004  85.3825 0001117 264.2288  95.8444 15.50650843  5188"
      },
      "geometry": {
        "type": "Point",
        "coordinates": [
          134.99244048227908,
          36.12421019677773
        ]
      }
    },
    {
      "type": "Feature",
      "properties": {
        "norad_id": 66475,
        "name": "STARLINK-35538",
        "group": "last-30-days",
        "lat": 36.951627402460005,
        "lon": 137.25698416149612,
        "alt_km": 409.7337091821628,
        "timestamp": "2025-12-10T14:53:35.945900+00:00",
        "meta_object_name": "STARLINK-35538",
        "meta_object_id": "2025-262V",
        "meta_epoch": "2025-12-10T05:21:10.827072",
        "meta_mean_motion": 15.50650368,
        "meta_eccentricity": 0.00020111,
        "meta_inclination": 43.0004,
        "meta_ra_of_asc_node": 85.7565,
        "meta_arg_of_pericenter": 262.2771,
        "meta_mean_anomaly": 97.7861,
        "meta_ephemeris_type": 0,
        "meta_classification_type": "U",
        "meta_norad_cat_id": 66475,
        "meta_element_set_no": 999,
        "meta_rev_at_epoch": 517,
        "meta_bstar": 0.0032715974,
        "meta_mean_motion_dot": 0.00196997,
        "meta_mean_motion_ddot": 0,
        "tle_line1": "1 66475U 25262V   25344.22304198  .00196997  00000+0  32716-2 0  9993",
        "tle_line2": "2 66475  43.0004  85.7565 0002011 262.2771  97.7861 15.50650368  5178"
      },
      "geometry": {
        "type": "Point",
        "coordinates": [
          137.25698416149612,
          36.951627402460005
        ]
      }
    },
    {
      "type": "Feature",
      "properties": {
        "norad_id": 66476,
        "name": "STARLINK-35372",
        "group": "last-30-days",
        "lat": 37.70237385464843,
        "lon": 139.47085469798697,
        "alt_km": 409.7908593763441,
        "timestamp": "2025-12-10T14:53:35.945910+00:00",
        "meta_object_name": "STARLINK-35372",
        "meta_object_id": "2025-262W",
        "meta_epoch": "2025-12-10T06:53:26.288448",
        "meta_mean_motion": 15.50673455,
        "meta_eccentricity": 0.00021587,
        "meta_inclination": 43.0003,
        "meta_ra_of_asc_node": 85.3772,
        "meta_arg_of_pericenter": 253.9421,
        "meta_mean_anomaly": 106.1201,
        "meta_ephemeris_type": 0,
        "meta_classification_type": "U",
        "meta_norad_cat_id": 66476,
        "meta_element_set_no": 999,
        "meta_rev_at_epoch": 507,
        "meta_bstar": 0.003320816,
        "meta_mean_motion_dot": 0.00200214,
        "meta_mean_motion_ddot": 0,
        "tle_line1": "1 66476U 25262W   25344.28710982  .00200214  00000+0  33208-2 0  9997",
        "tle_line2": "2 66476  43.0003  85.3772 0002158 253.9421 106.1201 15.50673455  5079"
      },
      "geometry": {
        "type": "Point",
        "coordinates": [
          139.47085469798697,
          37.70237385464843
        ]
      }
    },
    {
      "type": "Feature",
      "properties": {
        "norad_id": 66477,
        "name": "STARLINK-35354",
        "group": "last-30-days",
        "lat": 39.05454903513481,
        "lon": 143.954817134857,
        "alt_km": 409.3754409445719,
        "timestamp": "2025-12-10T14:53:35.945919+00:00",
        "meta_object_name": "STARLINK-35354",
        "meta_object_id": "2025-262X",
        "meta_epoch": "2025-12-10T06:52:27.177888",
        "meta_mean_motion": 15.50632717,
        "meta_eccentricity": 0.00015738,
        "meta_inclination": 43.0003,
        "meta_ra_of_asc_node": 85.3708,
        "meta_arg_of_pericenter": 242.9457,
        "meta_mean_anomaly": 117.1242,
        "meta_ephemeris_type": 0,
        "meta_classification_type": "U",
        "meta_norad_cat_id": 66477,
        "meta_element_set_no": 999,
        "meta_rev_at_epoch": 518,
        "meta_bstar": 0.002970893,
        "meta_mean_motion_dot": 0.00178315,
        "meta_mean_motion_ddot": 0,
        "tle_line1": "1 66477U 25262X   25344.28642567  .00178315  00000+0  29709-2 0  9998",
        "tle_line2": "2 66477  43.0003  85.3708 0001573 242.9457 117.1242 15.50632717  5181"
      },
      "geometry": {
        "type": "Point",
        "coordinates": [
          143.954817134857,
          39.05454903513481
        ]
      }
    }
  ]
}